[{"OBJECT_NAME":"METOP-B","OBJECT_ID":"2012-049A","EPOCH":"2026-03-09T20:49:00.301440","MEAN_MOTION":14.2144474,"ECCENTRICITY":0.0001197,"INCLINATION":98.6642,"RA_OF_ASC_NODE":122.2903,"ARG_OF_PERICENTER":264.5889,"MEAN_ANOMALY":95.5152,"EPHEMERIS_TYPE":0,"CLASSIFICATION_TYPE":"U","NORAD_CAT_ID":38771,"ELEMENT_SET_NO":999,"REV_AT_EPOCH":69915,"BSTAR":8.3719118e-5,"MEAN_MOTION_DOT":1.4e-6,"MEAN_MOTION_DDOT":0},{"OBJECT_NAME":"FENGYUN 1C DEB","OBJECT_ID":"1999-025CBE","EPOCH":"2026-03-08T19:50:23.250336","MEAN_MOTION":14.16710415,"ECCENTRICITY":0.00463396,"INCLINATION":102.804,"RA_OF_ASC_NODE":293.0523,"ARG_OF_PERICENTER":307.496,"MEAN_ANOMALY":52.199,"EPHEMERIS_TYPE":0,"CLASSIFICATION_TYPE":"U","NORAD_CAT_ID":31648,"ELEMENT_SET_NO":999,"REV_AT_EPOCH":73116,"BSTAR":0.003791349,"MEAN_MOTION_DOT":7.59e-5,"MEAN_MOTION_DDOT":0}]
